{
  "type": "FeatureCollection",
  "features": [
    {
      "type": "Feature",
      "properties": {
        "norad_id": 35459,
        "name": "COSMOS 2251 DEB",
        "group": "cosmos-2251-debris",
        "lat": -71.53389585679399,
        "lon": 115.77112354333575,
        "alt_km": 784.4099538245473,
        "timestamp": "2025-12-18T21:31:51.401243+00:00",
        "meta_object_name": "COSMOS 2251 DEB",
        "meta_object_id": "1993-036ALD",
        "meta_epoch": "2025-12-17T19:11:00.873024",
        "meta_mean_motion": 14.37469257,
        "meta_eccentricity": 0.00161114,
        "meta_inclination": 73.8694,
        "meta_ra_of_asc_node": 177.8806,
        "meta_arg_of_pericenter": 124.2019,
        "meta_mean_anomaly": 236.0663,
        "meta_ephemeris_type": 0,
        "meta_classification_type": "U",
        "meta_norad_cat_id": 35459,
        "meta_element_set_no": 999,
        "meta_rev_at_epoch": 58434,
        "meta_bstar": 0.00020652063,
        "meta_mean_motion_dot": 5.92e-06,
        "meta_mean_motion_ddot": 0,
        "tle_line1": "1 35459U 93036ALD 25351.79931566  .00000592  00000+0  20652-3 0  9992",
        "tle_line2": "2 35459  73.8694 177.8806 0016111 124.2019 236.0663 14.37469257584349"
      },
      "geometry": {
        "type": "Point",
        "coordinates": [
          115.77112354333575,
          -71.53389585679399
        ]
      }
    },
    {
      "type": "Feature",
      "properties": {
        "norad_id": 35462,
        "name": "COSMOS 2251 DEB",
        "group": "cosmos-2251-debris",
        "lat": 17.399849832979413,
        "lon": 72.35708474457394,
        "alt_km": 833.2728382838832,
        "timestamp": "2025-12-18T21:31:51.401254+00:00",
        "meta_object_name": "COSMOS 2251 DEB",
        "meta_object_id": "1993-036ALG",
        "meta_epoch": "2025-12-15T12:08:22.276032",
        "meta_mean_motion": 14.29319782,
        "meta_eccentricity": 0.00867718,
        "meta_inclination": 74.0367,
        "meta_ra_of_asc_node": 263.6601,
        "meta_arg_of_pericenter": 298.2214,
        "meta_mean_anomaly": 61.0193,
        "meta_ephemeris_type": 0,
        "meta_classification_type": "U",
        "meta_norad_cat_id": 35462,
        "meta_element_set_no": 999,
        "meta_rev_at_epoch": 66420,
        "meta_bstar": 0.0011070348,
        "meta_mean_motion_dot": 2.91e-05,
        "meta_mean_motion_ddot": 0,
        "tle_line1": "1 35462U 93036ALG 25349.50581338  .00002910  00000+0  11070-2 0  9999",
        "tle_line2": "2 35462  74.0367 263.6601 0086771 298.2214  61.0193 14.29319782664204"
      },
      "geometry": {
        "type": "Point",
        "coordinates": [
          72.35708474457394,
          17.399849832979413
        ]
      }
    },
    {
      "type": "Feature",
      "properties": {
        "norad_id": 35465,
        "name": "COSMOS 2251 DEB",
        "group": "cosmos-2251-debris",
        "lat": -13.162533473953811,
        "lon": 9.391039316252094,
        "alt_km": 788.2868512823898,
        "timestamp": "2025-12-18T21:31:51.401265+00:00",
        "meta_object_name": "COSMOS 2251 DEB",
        "meta_object_id": "1993-036ALK",
        "meta_epoch": "2025-12-17T13:03:02.562624",
        "meta_mean_motion": 14.44331537,
        "meta_eccentricity": 0.00642719,
        "meta_inclination": 73.9967,
        "meta_ra_of_asc_node": 188.0661,
        "meta_arg_of_pericenter": 347.2721,
        "meta_mean_anomaly": 12.6809,
        "meta_ephemeris_type": 0,
        "meta_classification_type": "U",
        "meta_norad_cat_id": 35465,
        "meta_element_set_no": 999,
        "meta_rev_at_epoch": 87311,
        "meta_bstar": 0.00028334394,
        "meta_mean_motion_dot": 9.72e-06,
        "meta_mean_motion_ddot": 0,
        "tle_line1": "1 35465U 93036ALK 25351.54377966  .00000972  00000+0  28334-3 0  9997",
        "tle_line2": "2 35465  73.9967 188.0661 0064271 347.2721  12.6809 14.44331537873113"
      },
      "geometry": {
        "type": "Point",
        "coordinates": [
          9.391039316252094,
          -13.162533473953811
        ]
      }
    },
    {
      "type": "Feature",
      "properties": {
        "norad_id": 35469,
        "name": "COSMOS 2251 DEB",
        "group": "cosmos-2251-debris",
        "lat": 27.109858535854546,
        "lon": -176.14082373504118,
        "alt_km": 672.0247103386546,
        "timestamp": "2025-12-18T21:31:51.401276+00:00",
        "meta_object_name": "COSMOS 2251 DEB",
        "meta_object_id": "1993-036ALP",
        "meta_epoch": "2025-12-17T10:03:24.635232",
        "meta_mean_motion": 14.49823782,
        "meta_eccentricity": 0.00766993,
        "meta_inclination": 74.0168,
        "meta_ra_of_asc_node": 15.0739,
        "meta_arg_of_pericenter": 169.3141,
        "meta_mean_anomaly": 190.9672,
        "meta_ephemeris_type": 0,
        "meta_classification_type": "U",
        "meta_norad_cat_id": 35469,
        "meta_element_set_no": 999,
        "meta_rev_at_epoch": 88179,
        "meta_bstar": 8.4078669e-05,
        "meta_mean_motion_dot": 3.07e-06,
        "meta_mean_motion_ddot": 0,
        "tle_line1": "1 35469U 93036ALP 25351.41903513  .00000307  00000+0  84079-4 0  9991",
        "tle_line2": "2 35469  74.0168  15.0739 0076699 169.3141 190.9672 14.49823782881797"
      },
      "geometry": {
        "type": "Point",
        "coordinates": [
          -176.14082373504118,
          27.109858535854546
        ]
      }
    },
    {
      "type": "Feature",
      "properties": {
        "norad_id": 35475,
        "name": "COSMOS 2251 DEB",
        "group": "cosmos-2251-debris",
        "lat": 73.78682303629043,
        "lon": -126.10919445847885,
        "alt_km": 664.9163015246613,
        "timestamp": "2025-12-18T21:31:51.401286+00:00",
        "meta_object_name": "COSMOS 2251 DEB",
        "meta_object_id": "1993-036ALV",
        "meta_epoch": "2025-12-17T04:17:46.417344",
        "meta_mean_motion": 14.69825096,
        "meta_eccentricity": 0.00204153,
        "meta_inclination": 74.0209,
        "meta_ra_of_asc_node": 157.0129,
        "meta_arg_of_pericenter": 229.8269,
        "meta_mean_anomaly": 130.1115,
        "meta_ephemeris_type": 0,
        "meta_classification_type": "U",
        "meta_norad_cat_id": 35475,
        "meta_element_set_no": 999,
        "meta_rev_at_epoch": 65682,
        "meta_bstar": 0.0014653547,
        "meta_mean_motion_dot": 8.76e-05,
        "meta_mean_motion_ddot": 0,
        "tle_line1": "1 35475U 93036ALV 25351.17900946  .00008760  00000+0  14654-2 0  9999",
        "tle_line2": "2 35475  74.0209 157.0129 0020415 229.8269 130.1115 14.69825096656822"
      },
      "geometry": {
        "type": "Point",
        "coordinates": [
          -126.10919445847885,
          73.78682303629043
        ]
      }
    },
    {
      "type": "Feature",
      "properties": {
        "norad_id": 35476,
        "name": "COSMOS 2251 DEB",
        "group": "cosmos-2251-debris",
        "lat": 60.86548398697256,
        "lon": 79.8585739462589,
        "alt_km": 626.3035993078438,
        "timestamp": "2025-12-18T21:31:51.401296+00:00",
        "meta_object_name": "COSMOS 2251 DEB",
        "meta_object_id": "1993-036ALW",
        "meta_epoch": "2025-12-18T05:14:38.528736",
        "meta_mean_motion": 14.75789174,
        "meta_eccentricity": 0.00179708,
        "meta_inclination": 73.9786,
        "meta_ra_of_asc_node": 50.1582,
        "meta_arg_of_pericenter": 29.5382,
        "meta_mean_anomaly": 31.8013,
        "meta_ephemeris_type": 0,
        "meta_classification_type": "U",
        "meta_norad_cat_id": 35476,
        "meta_element_set_no": 999,
        "meta_rev_at_epoch": 87968,
        "meta_bstar": 0.0012515049,
        "meta_mean_motion_dot": 8.576e-05,
        "meta_mean_motion_ddot": 0,
        "tle_line1": "1 35476U 93036ALW 25352.21850149  .00008576  00000+0  12515-2 0  9994",
        "tle_line2": "2 35476  73.9786  50.1582 0017970  29.5382  31.8013 14.75789174879688"
      },
      "geometry": {
        "type": "Point",
        "coordinates": [
          79.8585739462589,
          60.86548398697256
        ]
      }
    },
    {
      "type": "Feature",
      "properties": {
        "norad_id": 35580,
        "name": "COSMOS 2251 DEB",
        "group": "cosmos-2251-debris",
        "lat": -61.98432395374388,
        "lon": 135.37932031688896,
        "alt_km": 1058.6707971969763,
        "timestamp": "2025-12-18T21:31:51.401307+00:00",
        "meta_object_name": "COSMOS 2251 DEB",
        "meta_object_id": "1993-036ALX",
        "meta_epoch": "2025-12-17T18:06:35.144352",
        "meta_mean_motion": 13.83894964,
        "meta_eccentricity": 0.02810325,
        "meta_inclination": 73.9009,
        "meta_ra_of_asc_node": 170.1954,
        "meta_arg_of_pericenter": 174.439,
        "meta_mean_anomaly": 185.9973,
        "meta_ephemeris_type": 0,
        "meta_classification_type": "U",
        "meta_norad_cat_id": 35580,
        "meta_element_set_no": 999,
        "meta_rev_at_epoch": 62326,
        "meta_bstar": 0.0016372529,
        "meta_mean_motion_dot": 2.442e-05,
        "meta_mean_motion_ddot": 0,
        "tle_line1": "1 35580U 93036ALX 25351.75457343  .00002442  00000+0  16373-2 0  9999",
        "tle_line2": "2 35580  73.9009 170.1954 0281032 174.4390 185.9973 13.83894964623268"
      },
      "geometry": {
        "type": "Point",
        "coordinates": [
          135.37932031688896,
          -61.98432395374388
        ]
      }
    }
  ]
}